BADR-5                  
1 36592U 10025A   26201.48168237  .00000152  00000+0  00000+0 0  9999
2 36592   0.0598 110.3898 0005387  83.7281 308.0038  1.00273807 53559
COMS 1                  
1 36744U 10032A   26201.46408896 -.00000193  00000+0  00000+0 0  9998
2 36744   4.8887  74.9552 0011444  15.1250 316.3410  0.99166737 51418
ARABSAT-5A              
1 36745U 10032B   26201.48168237  .00000152  00000+0  00000+0 0  9997
2 36745   0.1231  68.6328 0005378  56.1832  17.3361  1.00269834 58989
ECHOSTAR 15             
1 36792U 10034A   26201.50045035 -.00000002  00000+0  00000+0 0  9999
2 36792   0.0341 275.6693 0001968 188.1179 255.8513  1.00273608 58654
BEIDOU-2 IGSO-1         
1 36828U 10036A   26200.58927551 -.00000097  00000+0  00000+0 0  9994
2 36828  54.3073 162.6674 0058652 225.1805 228.5775  1.00262639 58426
NILESAT 201             
1 36830U 10037A   26201.33174608 -.00000060  00000+0  00000+0 0  9999
2 36830   0.0359 204.5086 0005003 289.7507 276.2739  1.00270953 58703
RASCOM-QAF 1R           
1 36831U 10037B   26201.33373942  .00000017  00000+0  00000+0 0  9993
2 36831   0.0159  77.9969 0006116  31.6608 311.4888  1.00271654 58634
AEHF-1 (USA 214)        
1 36868U 10039A   26201.26782920  .00000141  00000+0  00000+0 0  9995
2 36868   8.3007  67.6157 0003946  37.4778 319.4034  1.00277738 53985
XM-5                    
1 37185U 10053A   26201.35336961 -.00000025  00000+0  00000+0 0  9996
2 37185   0.0624 264.8862 0001259 317.0834  88.1749  1.00272300 57810
BSAT-3B                 
1 37207U 10056B   26201.59488209 -.00000351  00000+0  00000+0 0  9995
2 37207   0.0621 241.6895 0002786 295.1240  85.5495  1.00271465 52437
BEIDOU-2 G4             
1 37210U 10057A   26201.57870524 -.00000116  00000+0  00000+0 0  9992
2 37210   3.7283  68.7424 0005372 185.4283  52.4510  1.00272755 57623
SKYTERRA 1              
1 37218U 10061A   26201.50600225 -.00000122  00000+0  00000+0 0  9994
2 37218   5.1943  50.7998 0002626  29.4016 298.9004  1.00272055 57524
HYLAS 1                 
1 37237U 10065A   26201.19835309  .00000115  00000+0  00000+0 0  9998
2 37237   5.7251  72.6107 0001170 137.9074 197.9062  1.00644074  7217
INTELSAT 17 (IS-17)     
1 37238U 10065B   26201.48878906 -.00000003  00000+0  00000+0 0  9998
2 37238   0.0110  96.8798 0002574  35.5439  47.8034  1.00272800 53588
BEIDOU-2 IGSO-2         
1 37256U 10068A   26200.83841608 -.00000205  00000+0  00000+0 0  9992
2 37256  47.4862 271.4234 0057032 214.1385 222.1771  1.00272665 57126
EUTELSAT KA-SAT 9A      
1 37258U 10069A   26201.33495275  .00000060  00000+0  00000+0 0  9994
2 37258   0.0618   8.9245 0004592 138.9036 279.8512  1.00272282 44332
HISPASAT 30W-5          
1 37264U 10070A   26201.39847969 -.00000218  00000+0  00000+0 0  9996
2 37264   0.0390 106.2292 0005856  22.9948 282.3689  1.00269805 53519
KOREASAT 6              
1 37265U 10070B   26201.54003281 -.00000113  00000+0  00000+0 0  9999
2 37265   0.0214  81.2399 0002760  49.0684 162.3006  1.00271525 57104
BEIDOU-2 IGSO-3         
1 37384U 11013A   26201.49639638 -.00000175  00000+0  00000+0 0  9992
2 37384  62.4540  39.8354 0035791 183.4623 359.8458  1.00259464 55993
INTELSAT 28 (IS-28)     
1 37392U 11016A   26201.39821969 -.00000228  00000+0  00000+0 0  9992
2 37392   1.8900  82.2213 0003910  42.1503 285.4507  1.00271567 53615
YAHSAT 1A               
1 37393U 11016B   26201.48618906  .00000100  00000+0  00000+0 0  9996
2 37393   0.0186  73.0159 0003211  41.2861  51.4787  1.00271237 42748
SBIRS GEO-1 (USA 230)   
1 37481U 11019A   26201.27198921  .00000096  00000+0  00000+0 0  9998
2 37481   4.6069  53.0921 0001916  52.2403 342.4329  1.00266083 55736
TELSTAR 14R             
1 37602U 11021A   26201.45836894 -.00000031  00000+0  00000+0 0  9994
2 37602   0.0969  84.9527 0008029 293.8010 356.6108  0.98982220 56168
GSAT-8                  
1 37605U 11022A   26201.48662240  .00000082  00000+0  00000+0 0  9998
2 37605   2.2151  81.4206 0002514 152.4572 294.6418  1.00271085 53559
ST-2                    
1 37606U 11022B   26201.56155837 -.00000212  00000+0  00000+0 0  9993
2 37606   0.0233  87.1022 0001779  47.9168  93.4912  1.00271196 55613
ZHONGXING-10            
1 37677U 11026A   26201.63527260 -.00000190  00000+0  00000+0 0  9991
2 37677   1.1314  83.8236 0003585  22.3710 146.4162  1.00273550 55331
SES-3                   
1 37748U 11035A   26201.51141824 -.00000104  00000+0  00000+0 0  9990
2 37748   1.4107  82.7232 0002180  36.2206 260.4600  1.00271923 54921
KAZSAT-2                
1 37749U 11035B   26201.56155837 -.00000199  00000+0  00000+0 0  9999
2 37749   0.0274 111.9417 0002081  57.2283  57.8416  1.00272398 53738
BEIDOU-2 IGSO-4         
1 37763U 11038A   26201.35254617 -.00000023  00000+0  00000+0 0  9997
2 37763  54.6051 165.3776 0160142 231.4902 122.5778  1.00278544 54977
ASTRA 1N                
1 37775U 11041A   26201.33694610  .00000118  00000+0  00000+0 0  9997
2 37775   0.0644  20.6374 0005976  95.8444 322.1017  1.00272497 44868
BSAT-3C (JCSAT-110R)    
1 37776U 11041B   26201.59851603 -.00000351  00000+0  00000+0 0  9993
2 37776   0.0274 318.8725 0000255 218.8432  86.0726  1.00271759 50803
PAKSAT-1R               
1 37779U 11042A   26201.48324238  .00000152  00000+0  00000+0 0  9992
2 37779   0.7733  84.2908 0003202 354.7984  71.0838  1.00271840 54811
