OBJECT_NAME,OBJECT_ID,EPOCH,MEAN_MOTION,ECCENTRICITY,INCLINATION,RA_OF_ASC_NODE,ARG_OF_PERICENTER,MEAN_ANOMALY,EPHEMERIS_TYPE,CLASSIFICATION_TYPE,NORAD_CAT_ID,ELEMENT_SET_NO,REV_AT_EPOCH,BSTAR,MEAN_MOTION_DOT,MEAN_MOTION_DDOT
BADR-5,2010-025A,2026-07-20T11:33:37.356768,1.00273807,.00053878,0.0598,110.3898,83.7281,308.0038,0,U,36592,999,5355,0,.152E-5,0
COMS 1,2010-032A,2026-07-20T11:08:17.286144,0.99166737,.00114442,4.8887,74.9552,15.1250,316.3410,0,U,36744,999,5141,0,-.193E-5,0
ARABSAT-5A,2010-032B,2026-07-20T11:33:37.356768,1.00269834,.00053786,0.1231,68.6328,56.1832,17.3361,0,U,36745,999,5898,0,.152E-5,0
ECHOSTAR 15,2010-034A,2026-07-20T12:00:38.910240,1.00273608,.00019682,0.0341,275.6693,188.1179,255.8513,0,U,36792,999,5865,0,-.2E-7,0
BEIDOU-2 IGSO-1,2010-036A,2026-07-19T14:08:33.404064,1.00262639,.00586524,54.3073,162.6674,225.1805,228.5775,0,U,36828,999,5842,0,-.97E-6,0
NILESAT 201,2010-037A,2026-07-20T07:57:42.861312,1.00270953,.00050037,0.0359,204.5086,289.7507,276.2739,0,U,36830,999,5870,0,-.6E-6,0
RASCOM-QAF 1R,2010-037B,2026-07-20T08:00:35.085888,1.00271654,.00061166,0.0159,77.9969,31.6608,311.4888,0,U,36831,999,5863,0,.17E-6,0
AEHF-1 (USA 214),2010-039A,2026-07-20T06:25:40.442880,1.00277738,.00039461,8.3007,67.6157,37.4778,319.4034,0,U,36868,999,5398,0,.141E-5,0
XM-5,2010-053A,2026-07-20T08:28:51.134304,1.00272300,.00012595,0.0624,264.8862,317.0834,88.1749,0,U,37185,999,5781,0,-.25E-6,0
BSAT-3B,2010-056B,2026-07-20T14:16:37.812576,1.00271465,.00027862,0.0621,241.6895,295.1240,85.5495,0,U,37207,999,5243,0,-.351E-5,0
BEIDOU-2 G4,2010-057A,2026-07-20T13:53:20.132736,1.00272755,.0005372,3.7283,68.7424,185.4283,52.4510,0,U,37210,999,5762,0,-.116E-5,0
SKYTERRA 1,2010-061A,2026-07-20T12:08:38.594400,1.00272055,.00026263,5.1943,50.7998,29.4016,298.9004,0,U,37218,999,5752,0,-.122E-5,0
HYLAS 1,2010-065A,2026-07-20T04:45:37.706976,1.00644074,.00011706,5.7251,72.6107,137.9074,197.9062,0,U,37237,999,721,0,.115E-5,0
INTELSAT 17 (IS-17),2010-065B,2026-07-20T11:43:51.374784,1.00272800,.00025742,0.0110,96.8798,35.5439,47.8034,0,U,37238,999,5358,0,-.3E-7,0
BEIDOU-2 IGSO-2,2010-068A,2026-07-19T20:07:19.149312,1.00272665,.00570323,47.4862,271.4234,214.1385,222.1771,0,U,37256,999,5712,0,-.205E-5,0
EUTELSAT KA-SAT 9A,2010-069A,2026-07-20T08:02:19.917600,1.00272282,.00045921,0.0618,8.9245,138.9036,279.8512,0,U,37258,999,4433,0,.6E-6,0
HISPASAT 30W-5,2010-070A,2026-07-20T09:33:48.645216,1.00269805,.00058563,0.0390,106.2292,22.9948,282.3689,0,U,37264,999,5351,0,-.218E-5,0
KOREASAT 6,2010-070B,2026-07-20T12:57:38.834784,1.00271525,.000276,0.0214,81.2399,49.0684,162.3006,0,U,37265,999,5710,0,-.113E-5,0
BEIDOU-2 IGSO-3,2011-013A,2026-07-20T11:54:48.647232,1.00259464,.00357915,62.4540,39.8354,183.4623,359.8458,0,U,37384,999,5599,0,-.175E-5,0
INTELSAT 28 (IS-28),2011-016A,2026-07-20T09:33:26.181216,1.00271567,.00039109,1.8900,82.2213,42.1503,285.4507,0,U,37392,999,5361,0,-.228E-5,0
YAHSAT 1A,2011-016B,2026-07-20T11:40:06.734784,1.00271237,.00032115,0.0186,73.0159,41.2861,51.4787,0,U,37393,999,4274,0,.1E-5,0
SBIRS GEO-1 (USA 230),2011-019A,2026-07-20T06:31:39.867744,1.00266083,.00019161,4.6069,53.0921,52.2403,342.4329,0,U,37481,999,5573,0,.96E-6,0
TELSTAR 14R,2011-021A,2026-07-20T11:00:03.076416,0.98982220,.00080294,0.0969,84.9527,293.8010,356.6108,0,U,37602,999,5616,0,-.31E-6,0
GSAT-8,2011-022A,2026-07-20T11:40:44.175360,1.00271085,.00025142,2.2151,81.4206,152.4572,294.6418,0,U,37605,999,5355,0,.82E-6,0
ST-2,2011-022B,2026-07-20T13:28:38.643168,1.00271196,.00017799,0.0233,87.1022,47.9168,93.4912,0,U,37606,999,5561,0,-.212E-5,0
ZHONGXING-10,2011-026A,2026-07-20T15:14:47.552640,1.00273550,.0003585,1.1314,83.8236,22.3710,146.4162,0,U,37677,999,5533,0,-.19E-5,0
SES-3,2011-035A,2026-07-20T12:16:26.535936,1.00271923,.00021801,1.4107,82.7232,36.2206,260.4600,0,U,37748,999,5492,0,-.104E-5,0
KAZSAT-2,2011-035B,2026-07-20T13:28:38.643168,1.00272398,.00020812,0.0274,111.9417,57.2283,57.8416,0,U,37749,999,5373,0,-.199E-5,0
BEIDOU-2 IGSO-4,2011-038A,2026-07-20T08:27:39.989088,1.00278544,.01601422,54.6051,165.3776,231.4902,122.5778,0,U,37763,999,5497,0,-.23E-6,0
ASTRA 1N,2011-041A,2026-07-20T08:05:12.143040,1.00272497,.00059769,0.0644,20.6374,95.8444,322.1017,0,U,37775,999,4486,0,.118E-5,0
BSAT-3C (JCSAT-110R),2011-041B,2026-07-20T14:21:51.784992,1.00271759,.00002559,0.0274,318.8725,218.8432,86.0726,0,U,37776,999,5080,0,-.351E-5,0
PAKSAT-1R,2011-042A,2026-07-20T11:35:52.141632,1.00271840,.00032022,0.7733,84.2908,354.7984,71.0838,0,U,37779,999,5481,0,.152E-5,0
